SCD 1                   
1 22490U 93009B   26157.63239583  .00000422  00000+0  64659-4 0  9999
2 22490  24.9697 272.7481 0042062  26.5792 171.7472 14.46115319759580
TECHSAT 1B (GO-32)      
1 25397U 98043D   26157.52793325  .00000069  00000+0  50114-4 0  9996
2 25397  99.0065 150.0178 0000460 194.1951 165.9214 14.24426343449816
SCD 2                   
1 25504U 98060A   26157.65563657  .00000410  00000+0  63559-4 0  9999
2 25504  24.9937 137.1058 0016780  12.7921 324.4598 14.45521696458792
DLR-TUBSAT              
1 25757U 99029B   26157.47765683  .00000134  00000+0  44809-4 0  9998
2 25757  98.6693 152.6293 0014709  27.1968 332.9994 14.52424183431697
TERRA                   
1 25994U 99068A   26157.54892369  .00000441  00000+0  98842-4 0  9991
2 25994  97.9461 207.5165 0000860 245.0327 224.6413 14.61094823408057
MAROC-TUBSAT            
1 27004U 01056D   26157.48799943 -.00000027  00000+0  22255-4 0  9998
2 27004  99.8079 334.1462 0020020 168.2153 254.7163 13.70261963224723
AQUA                    
1 27424U 02022A   26157.58401081  .00000917  00000+0  19217-3 0  9992
2 27424  98.4272 126.6555 0001519  55.2822   6.2406 14.62142109281721
SHIYAN-1 (SY-1)         
1 28220U 04012A   26157.54842884  .00017644  00000+0  54677-3 0  9998
2 28220  97.8687 234.9282 0006474  66.7034 293.4888 15.33487652209465
AURA                    
1 28376U 04026A   26157.57839977  .00000897  00000+0  19143-3 0  9998
2 28376  98.3412 113.9444 0001353  70.9328 289.2019 14.61313153164664
IRS-P5 (CARTOSAT-1)     
1 28649U 05017A   26157.34083502  .00001665  00000+0  17361-3 0  9996
2 28649  97.5312 180.8973 0002630  93.0906 267.0615 14.91021089142203
SINAH 1                 
1 28893U 05043D   26157.59823566  .00000380  00000+0  81541-4 0  9990
2 28893  98.2848 291.8589 0013406 312.9993  47.0084 14.64150663 98975
RESURS-DK 1             
1 29228U 06021A   26157.32647018  .00002815  00000+0  16434-3 0  9990
2 29228  69.9336   7.6660 0006253 300.7091  59.3458 15.13168567100932
ARIRANG-2 (KOMPSAT-2)   
1 29268U 06031A   26157.63619749  .00000370  00000+0  77922-4 0  9993
2 29268  97.8307 342.5933 0015805 104.7253 320.1657 14.64653410 59937
LAPAN-TUBSAT            
1 29709U 07001A   26157.61490307  .00000459  00000+0  59184-4 0  9994
2 29709  98.1343 156.6009 0011109 215.5998 144.4476 14.85938438 49584
HAIYANG-1B              
1 31113U 07010A   26157.51692810  .00000106  00000+0  56309-4 0  9993
2 31113  98.3489 139.7762 0012439 229.8296 130.1799 14.31024247999100
COSMO-SKYMED 1          
1 31598U 07023A   26157.57456507  .00002285  00000+0  20351-3 0  9998
2 31598  97.8860 349.3422 0001326  80.7138 279.4233 14.97053934 28209
TERRASAR-X              
1 31698U 07026A   26157.45519487  .00000822  00000+0  42342-4 0  9996
2 31698  97.4446 165.3145 0001806  76.8069 283.3367 15.19152015 51591
WORLDVIEW-1 (WV-1)      
1 32060U 07041A   26157.59114153  .00007432  00000+0  30832-3 0  9997
2 32060  97.3864 277.4892 0003169  49.6167 310.5346 15.24148662 41265
YAOGAN-3                
1 32289U 07055A   26157.58932791  .00001630  00000+0  17169-3 0  9992
2 32289  97.8161 187.5724 0001998  86.0579 274.0868 14.90741322  4297
COSMO-SKYMED 2          
1 32376U 07059A   26157.62938167  .00000492  00000+0  68388-4 0  9996
2 32376  97.8885 341.3807 0001431  88.0122 272.1255 14.82163125   449
RADARSAT-2              
1 32382U 07061A   26157.61215468  .00000183  00000+0  87738-4 0  9994
2 32382  98.5779 164.6961 0001310  80.4206 279.7125 14.29983107964447
CARTOSAT-2A             
1 32783U 08021A   26157.56169700  .00000795  00000+0  11361-3 0  9994
2 32783  97.7634 206.6326 0012533 140.0600 220.1536 14.79222659977235
HUANJING 1A (HJ-1A)     
1 33320U 08041A   26157.64753029  .00001279  00000+0  15947-3 0  9998
2 33320  97.6684 143.8940 0018986 168.3172 191.8487 14.83961417956846
HUANJING 1B (HJ-1B)     
1 33321U 08041B   26157.61184346  .00001445  00000+0  18098-3 0  9991
2 33321  97.6519 147.0637 0035089 216.4189 143.4638 14.83300933956840
GEOEYE 1                
1 33331U 08042A   26157.56336866  .00000562  00000+0  11440-3 0  9996
2 33331  98.1236 231.6290 0005581  94.8620 265.3221 14.64716036948599
THEOS                   
1 33396U 08049A   26157.61185184  .00000037  00000+0  37428-4 0  9997
2 33396  98.5571 215.2387 0001316  79.6328 280.4998 14.20132091916464
COSMO-SKYMED 3          
1 33412U 08054A   26157.58522986  .00004537  00000+0  30766-3 0  9999
2 33412  97.8294  15.9797 0014223 307.0205  52.9720 15.06887137955348
YAOGAN-4                
1 33446U 08061A   26157.57534547  .00001173  00000+0  15000-3 0  9996
2 33446  97.9307  91.1644 0015703 103.7531 256.5431 14.83180349944091
GOSAT (IBUKI)           
1 33492U 09002A   26157.57012545  .00000052  00000+0  17705-4 0  9992
2 33492  98.0880 268.7848 0001544  91.3741 268.7641 14.67539173929907
DEIMOS-1                
1 35681U 09041A   26157.67315012  .00000722  00000+0  11376-3 0  9994
2 35681  97.7398 315.3573 0000931 137.2871 222.8412 14.75226798905339
